[{"OBJECT_NAME":"QIANFAN-37","OBJECT_ID":"2024-232B","EPOCH":"2026-03-09T22:38:36.925152","MEAN_MOTION":13.51006014,"ECCENTRICITY":0.00018605,"INCLINATION":89.0059,"RA_OF_ASC_NODE":32.523,"ARG_OF_PERICENTER":97.9605,"MEAN_ANOMALY":262.1758,"EPHEMERIS_TYPE":0,"CLASSIFICATION_TYPE":"U","NORAD_CAT_ID":62238,"ELEMENT_SET_NO":999,"REV_AT_EPOCH":11094,"BSTAR":0.00013585311,"MEAN_MOTION_DOT":1.0e-6,"MEAN_MOTION_DDOT":0},{"OBJECT_NAME":"SL-8 DEB","OBJECT_ID":"1965-020E","EPOCH":"2026-03-09T21:09:43.637184","MEAN_MOTION":13.87340604,"ECCENTRICITY":0.05255409,"INCLINATION":56.0761,"RA_OF_ASC_NODE":307.1304,"ARG_OF_PERICENTER":335.346,"MEAN_ANOMALY":22.319,"EPHEMERIS_TYPE":0,"CLASSIFICATION_TYPE":"U","NORAD_CAT_ID":1335,"ELEMENT_SET_NO":999,"REV_AT_EPOCH":99620,"BSTAR":0.0005831786,"MEAN_MOTION_DOT":1.917e-5,"MEAN_MOTION_DDOT":0}]
